SL-3 R/B                
1 13403U 82079B   26001.77584303  .00010795  00000+0  44193-3 0  9998
2 13403  81.1475 272.0404 0026416  34.7366 325.5584 15.23866429367505
SL-14 R/B               
1 13553U 82092B   26001.79702036  .00000968  00000+0  10604-3 0  9997
2 13553  82.5670 203.9532 0020807 159.2417 211.2630 14.86579119318993
SL-3 R/B                
1 13819U 83010B   26001.67127476  .00023065  00000+0  50085-3 0  9999
2 13819  81.1050  84.2801 0016329 280.0681  79.8720 15.44084767347595
SL-3 R/B                
1 14208U 83075B   26001.78271882  .00017938  00000+0  49872-3 0  9990
2 14208  97.6102   3.9456 0024460 107.4278 252.9642 15.36609945319870
COSMOS 1536             
1 14699U 84013A   26001.52164214  .00011441  00000+0  48649-3 0  9993
2 14699  82.5447 174.5424 0014985 154.7111 205.4862 15.22799467262396
SL-14 R/B               
1 14820U 84027B   26001.35399027  .00000935  00000+0  10429-3 0  9998
2 14820  82.5429 308.1629 0017533 191.6621 168.4192 14.85899386237634
SL-8 R/B                
1 15483U 85006B   26001.81260781  .00000594  00000+0  20590-3 0  9998
2 15483  74.0458  24.2023 0019500 312.6188 220.0879 14.37736511144418
SL-12 R/B(2)            
1 15772U 85042D   26001.79721340  .00000188  00000+0  10618-3 0  9998
2 15772  71.1067 229.0477 0037040 231.9866 201.2489 14.21958611104881
SL-14 R/B               
1 15945U 85069B   26001.69587175  .00000983  00000+0  10848-3 0  9992
2 15945  82.5271  87.9426 0020060  57.0863 303.2280 14.86351219162887
SL-16 R/B               
1 16182U 85097B   26001.76435391  .00000105  00000+0  76601-4 0  9993
2 16182  71.0030 281.4467 0007883 340.9471  86.6847 14.16587071 77752
SL-14 R/B               
1 16496U 86006B   26001.35330081  .00001136  00000+0  11801-3 0  9992
2 16496  82.5279 323.0964 0077796 135.0477 225.7075 14.86700788139203
COSMOS 1743             
1 16719U 86034A   26001.82557123  .00046183  00000+0  72424-3 0  9990
2 16719  82.5353 143.7107 0005009 174.0615 186.0698 15.53484689169853
