CCSDS_OMM_VERS = 2.0
CREATION_DATE  = 
ORIGINATOR     = 

OBJECT_NAME    = SL-3 R/B
OBJECT_ID      = 1982-079B
CENTER_NAME    = EARTH
REF_FRAME      = TEME
TIME_SYSTEM    = UTC
MEAN_ELEMENT_THEORY = SGP/SGP4

EPOCH          = 2026-01-01T18:37:12.837792
MEAN_MOTION    = 15.23866429
ECCENTRICITY   = .0026416
INCLINATION    = 81.1475
RA_OF_ASC_NODE = 272.0404
ARG_OF_PERICENTER = 34.7366
MEAN_ANOMALY   = 325.5584

EPHEMERIS_TYPE = 0
CLASSIFICATION_TYPE = U
NORAD_CAT_ID   = 13403
ELEMENT_SET_NO = 999
REV_AT_EPOCH   = 36750
BSTAR          = .44193E-3
MEAN_MOTION_DOT = .10795E-3
MEAN_MOTION_DDOT = 0

CCSDS_OMM_VERS = 2.0
CREATION_DATE  = 
ORIGINATOR     = 

OBJECT_NAME    = SL-14 R/B
OBJECT_ID      = 1982-092B
CENTER_NAME    = EARTH
REF_FRAME      = TEME
TIME_SYSTEM    = UTC
MEAN_ELEMENT_THEORY = SGP/SGP4

EPOCH          = 2026-01-01T19:07:42.559104
MEAN_MOTION    = 14.86579119
ECCENTRICITY   = .0020807
INCLINATION    = 82.5670
RA_OF_ASC_NODE = 203.9532
ARG_OF_PERICENTER = 159.2417
MEAN_ANOMALY   = 211.2630

EPHEMERIS_TYPE = 0
CLASSIFICATION_TYPE = U
NORAD_CAT_ID   = 13553
ELEMENT_SET_NO = 999
REV_AT_EPOCH   = 31899
BSTAR          = .10604E-3
MEAN_MOTION_DOT = .968E-5
MEAN_MOTION_DDOT = 0

CCSDS_OMM_VERS = 2.0
CREATION_DATE  = 
ORIGINATOR     = 

OBJECT_NAME    = SL-3 R/B
OBJECT_ID      = 1983-010B
CENTER_NAME    = EARTH
REF_FRAME      = TEME
TIME_SYSTEM    = UTC
MEAN_ELEMENT_THEORY = SGP/SGP4

EPOCH          = 2026-01-01T16:06:38.139264
MEAN_MOTION    = 15.44084767
ECCENTRICITY   = .0016329
INCLINATION    = 81.1050
RA_OF_ASC_NODE = 84.2801
ARG_OF_PERICENTER = 280.0681
MEAN_ANOMALY   = 79.8720

EPHEMERIS_TYPE = 0
CLASSIFICATION_TYPE = U
NORAD_CAT_ID   = 13819
ELEMENT_SET_NO = 999
REV_AT_EPOCH   = 34759
BSTAR          = .50085E-3
MEAN_MOTION_DOT = .23065E-3
MEAN_MOTION_DDOT = 0

CCSDS_OMM_VERS = 2.0
CREATION_DATE  = 
ORIGINATOR     = 

OBJECT_NAME    = SL-3 R/B
OBJECT_ID      = 1983-075B
CENTER_NAME    = EARTH
REF_FRAME      = TEME
TIME_SYSTEM    = UTC
MEAN_ELEMENT_THEORY = SGP/SGP4

EPOCH          = 2026-01-01T18:47:06.906048
MEAN_MOTION    = 15.36609945
ECCENTRICITY   = .002446
INCLINATION    = 97.6102
RA_OF_ASC_NODE = 3.9456
ARG_OF_PERICENTER = 107.4278
MEAN_ANOMALY   = 252.9642

EPHEMERIS_TYPE = 0
CLASSIFICATION_TYPE = U
NORAD_CAT_ID   = 14208
ELEMENT_SET_NO = 999
REV_AT_EPOCH   = 31987
BSTAR          = .49872E-3
MEAN_MOTION_DOT = .17938E-3
MEAN_MOTION_DDOT = 0

CCSDS_OMM_VERS = 2.0
CREATION_DATE  = 
ORIGINATOR     = 

OBJECT_NAME    = COSMOS 1536
OBJECT_ID      = 1984-013A
CENTER_NAME    = EARTH
REF_FRAME      = TEME
TIME_SYSTEM    = UTC
MEAN_ELEMENT_THEORY = SGP/SGP4

EPOCH          = 2026-01-01T12:31:09.880896
MEAN_MOTION    = 15.22799467
ECCENTRICITY   = .0014985
INCLINATION    = 82.5447
RA_OF_ASC_NODE = 174.5424
ARG_OF_PERICENTER = 154.7111
MEAN_ANOMALY   = 205.4862

EPHEMERIS_TYPE = 0
CLASSIFICATION_TYPE = U
NORAD_CAT_ID   = 14699
ELEMENT_SET_NO = 999
REV_AT_EPOCH   = 26239
BSTAR          = .48649E-3
MEAN_MOTION_DOT = .11441E-3
MEAN_MOTION_DDOT = 0

CCSDS_OMM_VERS = 2.0
CREATION_DATE  = 
ORIGINATOR     = 

OBJECT_NAME    = SL-14 R/B
OBJECT_ID      = 1984-027B
CENTER_NAME    = EARTH
REF_FRAME      = TEME
TIME_SYSTEM    = UTC
MEAN_ELEMENT_THEORY = SGP/SGP4

EPOCH          = 2026-01-01T08:29:44.759328
MEAN_MOTION    = 14.85899386
ECCENTRICITY   = .0017533
INCLINATION    = 82.5429
RA_OF_ASC_NODE = 308.1629
ARG_OF_PERICENTER = 191.6621
MEAN_ANOMALY   = 168.4192

EPHEMERIS_TYPE = 0
CLASSIFICATION_TYPE = U
NORAD_CAT_ID   = 14820
ELEMENT_SET_NO = 999
REV_AT_EPOCH   = 23763
BSTAR          = .10429E-3
MEAN_MOTION_DOT = .935E-5
MEAN_MOTION_DDOT = 0

CCSDS_OMM_VERS = 2.0
CREATION_DATE  = 
ORIGINATOR     = 

OBJECT_NAME    = SL-8 R/B
OBJECT_ID      = 1985-006B
CENTER_NAME    = EARTH
REF_FRAME      = TEME
TIME_SYSTEM    = UTC
MEAN_ELEMENT_THEORY = SGP/SGP4

EPOCH          = 2026-01-01T19:30:09.314784
MEAN_MOTION    = 14.37736511
ECCENTRICITY   = .00195
INCLINATION    = 74.0458
RA_OF_ASC_NODE = 24.2023
ARG_OF_PERICENTER = 312.6188
MEAN_ANOMALY   = 220.0879

EPHEMERIS_TYPE = 0
CLASSIFICATION_TYPE = U
NORAD_CAT_ID   = 15483
ELEMENT_SET_NO = 999
REV_AT_EPOCH   = 14441
BSTAR          = .2059E-3
MEAN_MOTION_DOT = .594E-5
MEAN_MOTION_DDOT = 0

CCSDS_OMM_VERS = 2.0
CREATION_DATE  = 
ORIGINATOR     = 

OBJECT_NAME    = SL-12 R/B(2)
OBJECT_ID      = 1985-042D
CENTER_NAME    = EARTH
REF_FRAME      = TEME
TIME_SYSTEM    = UTC
MEAN_ELEMENT_THEORY = SGP/SGP4

EPOCH          = 2026-01-01T19:07:59.237760
MEAN_MOTION    = 14.21958611
ECCENTRICITY   = .003704
INCLINATION    = 71.1067
RA_OF_ASC_NODE = 229.0477
ARG_OF_PERICENTER = 231.9866
MEAN_ANOMALY   = 201.2489

EPHEMERIS_TYPE = 0
CLASSIFICATION_TYPE = U
NORAD_CAT_ID   = 15772
ELEMENT_SET_NO = 999
REV_AT_EPOCH   = 10488
BSTAR          = .10618E-3
MEAN_MOTION_DOT = .188E-5
MEAN_MOTION_DDOT = 0

CCSDS_OMM_VERS = 2.0
CREATION_DATE  = 
ORIGINATOR     = 

OBJECT_NAME    = SL-14 R/B
OBJECT_ID      = 1985-069B
CENTER_NAME    = EARTH
REF_FRAME      = TEME
TIME_SYSTEM    = UTC
MEAN_ELEMENT_THEORY = SGP/SGP4

EPOCH          = 2026-01-01T16:42:03.319200
MEAN_MOTION    = 14.86351219
ECCENTRICITY   = .002006
INCLINATION    = 82.5271
RA_OF_ASC_NODE = 87.9426
ARG_OF_PERICENTER = 57.0863
MEAN_ANOMALY   = 303.2280

EPHEMERIS_TYPE = 0
CLASSIFICATION_TYPE = U
NORAD_CAT_ID   = 15945
ELEMENT_SET_NO = 999
REV_AT_EPOCH   = 16288
BSTAR          = .10848E-3
MEAN_MOTION_DOT = .983E-5
MEAN_MOTION_DDOT = 0

CCSDS_OMM_VERS = 2.0
CREATION_DATE  = 
ORIGINATOR     = 

OBJECT_NAME    = SL-16 R/B
OBJECT_ID      = 1985-097B
CENTER_NAME    = EARTH
REF_FRAME      = TEME
TIME_SYSTEM    = UTC
MEAN_ELEMENT_THEORY = SGP/SGP4

EPOCH          = 2026-01-01T18:20:40.177824
MEAN_MOTION    = 14.16587071
ECCENTRICITY   = .0007883
INCLINATION    = 71.0030
RA_OF_ASC_NODE = 281.4467
ARG_OF_PERICENTER = 340.9471
MEAN_ANOMALY   = 86.6847

EPHEMERIS_TYPE = 0
CLASSIFICATION_TYPE = U
NORAD_CAT_ID   = 16182
ELEMENT_SET_NO = 999
REV_AT_EPOCH   = 7775
BSTAR          = .76601E-4
MEAN_MOTION_DOT = .105E-5
MEAN_MOTION_DDOT = 0

CCSDS_OMM_VERS = 2.0
CREATION_DATE  = 
ORIGINATOR     = 

OBJECT_NAME    = SL-14 R/B
OBJECT_ID      = 1986-006B
CENTER_NAME    = EARTH
REF_FRAME      = TEME
TIME_SYSTEM    = UTC
MEAN_ELEMENT_THEORY = SGP/SGP4

EPOCH          = 2026-01-01T08:28:45.189984
MEAN_MOTION    = 14.86700788
ECCENTRICITY   = .0077796
INCLINATION    = 82.5279
RA_OF_ASC_NODE = 323.0964
ARG_OF_PERICENTER = 135.0477
MEAN_ANOMALY   = 225.7075

EPHEMERIS_TYPE = 0
CLASSIFICATION_TYPE = U
NORAD_CAT_ID   = 16496
ELEMENT_SET_NO = 999
REV_AT_EPOCH   = 13920
BSTAR          = .11801E-3
MEAN_MOTION_DOT = .1136E-4
MEAN_MOTION_DDOT = 0

CCSDS_OMM_VERS = 2.0
CREATION_DATE  = 
ORIGINATOR     = 

OBJECT_NAME    = COSMOS 1743
OBJECT_ID      = 1986-034A
CENTER_NAME    = EARTH
REF_FRAME      = TEME
TIME_SYSTEM    = UTC
MEAN_ELEMENT_THEORY = SGP/SGP4

EPOCH          = 2026-01-01T19:48:49.354272
MEAN_MOTION    = 15.53484689
ECCENTRICITY   = .0005009
INCLINATION    = 82.5353
RA_OF_ASC_NODE = 143.7107
ARG_OF_PERICENTER = 174.0615
MEAN_ANOMALY   = 186.0698

EPHEMERIS_TYPE = 0
CLASSIFICATION_TYPE = U
NORAD_CAT_ID   = 16719
ELEMENT_SET_NO = 999
REV_AT_EPOCH   = 16985
BSTAR          = .72424E-3
MEAN_MOTION_DOT = .46183E-3
MEAN_MOTION_DDOT = 0

